STARLINK-37002          
1 68164U 26049Y   26079.82054813 -.00481185  84172-4 -92966-3 0  9991
2 68164  97.2773  99.5096 0000568 170.3743 189.7546 16.00359997  1161
STARLINK-36971          
1 68165U 26049Z   26079.56959098 -.00784045  21194-3 -14323-2 0  9997
2 68165  97.2765  99.2387 0000405 179.1967 180.9313 16.01379723  1129
STARLINK-36273          
1 68166U 26049AA  26079.75630469 -.00306844  36957-4 -56287-3 0  9994
2 68166  97.2750  99.4439 0000649 211.7263 148.3977 16.01239572  1150
STARLINK-36969          
1 68167U 26050A   26078.57016830 -.00762286  19812-3 -16788-2 0  9993
2 68167  53.1618 232.5443 0000488 318.1927  41.9065 15.97343210  2033
STARLINK-36984          
1 68168U 26050B   26078.56997631 -.00752821  19400-3 -16463-2 0  9997
2 68168  53.1620 232.5441 0000565 333.0752  27.0248 15.97468217  2036
STARLINK-37077          
1 68169U 26050C   26078.56974941 -.00740191  18853-3 -16046-2 0  9992
2 68169  53.1619 232.5425 0000745 335.0992  25.0002 15.97622802  2033
STARLINK-37003          
1 68170U 26050D   26078.56952426 -.00716345  17815-3 -15382-2 0  9991
2 68170  53.1620 232.5407 0000461 327.9149  32.1853 15.97788708  2037
STARLINK-37034          
1 68171U 26050E   26078.56928901 -.00745719  19165-3 -15903-2 0  9999
2 68171  53.1619 232.5395 0000585 340.0636  20.0371 15.97919140  2033
STARLINK-37031          
1 68172U 26050F   26078.56904187 -.00746879  19250-3 -15788-2 0  9994
2 68172  53.1620 232.5378 0000458 346.3779  13.7239 15.98076782  2032
STARLINK-37076          
1 68173U 26050G   26078.50625542 -.00864982  25162-3 -17873-2 0  9996
2 68173  53.1615 232.8571 0000645 359.7564   0.3466 15.98507778  2020
STARLINK-37078          
1 68174U 26050H   26078.56858123 -.00805867  22125-3 -16768-2 0  9991
2 68174  53.1617 232.5342 0000261  74.2706 285.8353 15.98372202  2035
STARLINK-36886          
1 68175U 26050J   26078.56836353 -.00726912  18427-3 -14987-2 0  9997
2 68175  53.1618 232.5329 0000812 328.5582  31.5400 15.98517353  2038
